name,latitude_deg,longitude_deg,elevation_ft,continent,iso_country,iso_region
Paraport Airstrip,41.788417,-79.518586,1400,NA,US,US-PA
Aleknagik / New Airport,59.2826004,-158.6179962,66,NA,US,US-AK
South Alabama Regional At Bill Benton Field Airport,31.3088,-86.393799,310,NA,US,US-AL
Lehigh Valley International Airport,40.65209961,-75.44080353,393,NA,US,US-PA
Abilene Regional Airport,32.41130066,-99.68190002,1791,NA,US,US-TX
Albuquerque International Sunport Airport,35.040199,-106.609001,5355,NA,US,US-NM
Aberdeen Regional Airport,45.44910049,-98.42179871,1302,NA,US,US-SD
Southwest Georgia Regional Airport,31.53549957,-84.19450378,197,NA,US,US-GA
Nantucket Memorial Airport,41.25310135,-70.06020355,47,NA,US,US-MA
Waco Regional Airport,31.61129951,-97.23049927,516,NA,US,US-TX
California Redwood Coast-Humboldt County Airport,40.978101,-124.109,221,NA,US,US-CA
Atlantic City International Airport,39.45759964,-74.57720184,75,NA,US,US-NJ
Andrews Air Force Base,38.810799,-76.866997,280,NA,US,US-MD
Alexandria International Airport,31.32740021,-92.54979706,89,NA,US,US-LA
Fort Worth Alliance Airport,32.98759842,-97.31880188,722,NA,US,US-TX
Allegheny County Airport,40.35440063,-79.93019867,1252,NA,US,US-PA
Augusta Regional At Bush Field,33.36989975,-81.96450043,144,NA,US,US-GA
Athens Ben Epps Airport,33.94860077,-83.32630157,808,NA,US,US-GA
Akron Fulton International Airport,41.03749847,-81.46690369,1067,NA,US,US-OH
Albany International Airport,42.74829865,-73.80169678,285,NA,US,US-NY
Alice International Airport,27.74090004,-98.02690125,178,NA,US,US-TX
Alamogordo White Sands Regional Airport,32.83990097,-105.9909973,4200,NA,US,US-NM
St Louis Regional Airport,38.89030075,-90.04599762,544,NA,US,US-IL
Waterloo Regional Airport,42.55709839,-92.40029907,873,NA,US,US-IA
San Luis Valley Regional Bergman Field,37.434898,-105.866997,7539,NA,US,US-CO
Walla Walla Regional Airport,46.09489822,-118.288002,1194,NA,US,US-WA
Rick Husband Amarillo International Airport,35.219398,-101.706001,3607,NA,US,US-TX
Anniston Metropolitan Airport,33.58819962,-85.85810089,612,NA,US,US-AL
Anderson Regional Airport,34.49459839,-82.70939636,782,NA,US,US-SC
Altoona Blair County Airport,40.29639816,-78.31999969,1503,NA,US,US-PA
Centennial Airport,39.57009888,-104.848999,5885,NA,US,US-CO
Naples Municipal Airport,26.15259933,-81.77529907,8,NA,US,US-FL
Phillips Army Air Field,39.466202,-76.1688,57,NA,US,US-MD
Alpena County Regional Airport,45.0780983,-83.56030273,690,NA,US,US-MI
Acadiana Regional Airport,30.0378,-91.883904,24,NA,US,US-LA
Watertown International Airport,43.9919014,-76.021698,325,NA,US,US-NY
Aspen-Pitkin Co/Sardy Field,39.22320175,-106.8690033,7820,NA,US,US-CO
Astoria Regional Airport,46.15800095,-123.8789978,15,NA,US,US-OR
Hartsfield Jackson Atlanta International Airport,33.63669968,-84.42810059,1026,NA,US,US-GA
Watertown Regional Airport,44.91400146,-97.15470123,1749,NA,US,US-SD
Augusta State Airport,44.3205986,-69.79730225,352,NA,US,US-ME
Austin Bergstrom International Airport,30.19449997,-97.66989899,542,NA,US,US-TX
Wausau Downtown Airport,44.92620087,-89.62660217,1201,NA,US,US-WI
Asheville Regional Airport,35.43619919,-82.54180145,2165,NA,US,US-NC
Wilkes Barre Scranton International Airport,41.33850098,-75.7233963,962,NA,US,US-PA
Chandler Field,45.86629868,-95.3946991,1425,NA,US,US-MN
Kalamazoo Battle Creek International Airport,42.23490143,-85.55210114,874,NA,US,US-MI
Beale Air Force Base,39.13610077,-121.4369965,113,NA,US,US-CA
Barksdale Air Force Base,32.50180054,-93.66269684,166,NA,US,US-LA
Westfield-Barnes Regional Airport,42.157799,-72.715599,271,NA,US,US-MA
Columbus Municipal Airport,39.26190186,-85.89630127,656,NA,US,US-IN
Curtis Field,31.17930031,-99.32389832,1827,NA,US,US-TX
Bryce Canyon Airport,37.70640183,-112.1449966,7590,NA,US,US-UT
Baudette International Airport,48.72840118,-94.61219788,1086,NA,US,US-MN
Bradley International Airport,41.93889999,-72.68319702,173,NA,US,US-CT
Igor I Sikorsky Memorial Airport,41.16350174,-73.12619781,9,NA,US,US-CT
Laurence G Hanscom Field,42.47000122,-71.28900146,133,NA,US,US-MA
Bradford Regional Airport,41.80310059,-78.64009857,2143,NA,US,US-PA
Western Neb. Rgnl/William B. Heilig Airport,41.87400055,-103.5960007,3967,NA,US,US-NE
Boeing Field King County International Airport,47.52999878,-122.302002,21,NA,US,US-WA
Meadows Field,35.43360138,-119.0569992,510,NA,US,US-CA
Mobile Downtown Airport,30.62680054,-88.06809998,26,NA,US,US-AL
Greater Binghamton/Edwin A Link field,42.20869827,-75.97979736,1636,NA,US,US-NY
Bangor International Airport,44.80739975,-68.82810211,192,NA,US,US-ME
Hancock County-Bar Harbor Airport,44.45000076,-68.3615036,83,NA,US,US-ME
Birmingham-Shuttlesworth International Airport,33.56290054,-86.75350189,650,NA,US,US-AL
Biggs Army Air Field (Fort Bliss),31.84950066,-106.3799973,3946,NA,US,US-TX
Eastern Sierra Regional Airport,37.37310028,-118.3639984,4124,NA,US,US-CA
Billings Logan International Airport,45.80770111,-108.5429993,3652,NA,US,US-MT
Bismarck Municipal Airport,46.77270126,-100.7460022,1661,NA,US,US-ND
Keesler Air Force Base,30.41040039,-88.92440033,33,NA,US,US-MS
Rocky Mountain Metropolitan Airport,39.90879822,-105.1169968,5673,NA,US,US-CO
Bemidji Regional Airport,47.50939941,-94.93370056,1391,NA,US,US-MN
Baker City Municipal Airport,44.83729935,-117.8089981,3373,NA,US,US-OR
Buckley Air Force Base,39.7016983,-104.7519989,5662,NA,US,US-CO
Burke Lakefront Airport,41.51750183,-81.6832962,583,NA,US,US-OH
Raleigh County Memorial Airport,37.78730011,-81.12419891,2504,NA,US,US-WV
Mercer County Airport,37.29579926,-81.20770264,2857,NA,US,US-WV
Blythe Airport,33.61920166,-114.7170029,399,NA,US,US-CA
Bellingham International Airport,48.7928009,-122.538002,170,NA,US,US-WA
Scott AFB/Midamerica Airport,38.5452,-89.835197,459,NA,US,US-IL
Monroe County Airport,39.14599991,-86.61669922,846,NA,US,US-IN
Central Illinois Regional Airport at Bloomington-Normal,40.47710037,-88.91590118,871,NA,US,US-IL
Nashville International Airport,36.12450027,-86.67819977,599,NA,US,US-TN
Burns Municipal Airport,43.59189987,-118.9550018,4148,NA,US,US-OR
Boise Air Terminal/Gowen field,43.56439972,-116.2229996,2871,NA,US,US-ID
General Edward Lawrence Logan International Airport,42.36429977,-71.00520325,20,NA,US,US-MA
Miley Memorial Field,42.58509827,-110.1110001,6990,NA,US,US-WY
Ozark Regional Airport,36.3689003,-92.47049713,928,NA,US,US-AR
Southeast Texas Regional Airport,29.95079994,-94.02069855,15,NA,US,US-TX
Brunswick Golden Isles Airport,31.25880051,-81.46649933,26,NA,US,US-GA
Brainerd Lakes Regional Airport,46.39830017,-94.13809967,1232,NA,US,US-MN
Southeast Iowa Regional Airport,40.78319931,-91.12550354,698,NA,US,US-IA
Brownsville South Padre Island International Airport,25.90679932,-97.42590332,22,NA,US,US-TX
W K Kellogg Airport,42.30730057,-85.25150299,952,NA,US,US-MI
Bert Mooney Airport,45.95479965,-112.4970016,5550,NA,US,US-MT
"Baton Rouge Metropolitan, Ryan Field",30.53319931,-91.14959717,70,NA,US,US-LA
Burlington International Airport,44.47190094,-73.15329742,335,NA,US,US-VT
Buffalo Niagara International Airport,42.94049835,-78.73220062,728,NA,US,US-NY
Bob Hope Airport,34.20069885,-118.3590012,778,NA,US,US-CA
Beaver County Airport,40.77249908,-80.3914032,1253,NA,US,US-PA
Beverly Municipal Airport,42.58420181,-70.91649628,107,NA,US,US-MA
Bowling Green Warren County Regional Airport,36.96450043,-86.41970062,547,NA,US,US-KY
Baltimore/Washington International Thurgood Marshall Airport,39.17539978,-76.66829681,146,NA,US,US-MD
Arkansas International Airport,35.96429825,-89.94400024,254,NA,US,US-AR
Burley Municipal Airport,42.54259872,-113.7720032,4150,NA,US,US-ID
Bicycle Lake Army Air Field,35.2804985,-116.6299973,2350,NA,US,US-CA
Gallatin Field,45.77750015,-111.1529999,4473,NA,US,US-MT
Columbia Metropolitan Airport,33.93880081,-81.11949921,236,NA,US,US-SC
Akron Canton Regional Airport,40.91609955,-81.44219971,1228,NA,US,US-OH
Caribou Municipal Airport,46.87149811,-68.01789856,626,NA,US,US-ME
Columbus Air Force Base,33.64379883,-88.44380188,219,NA,US,US-MS
Northeast Iowa Regional Airport,43.07260132,-92.6108017,1125,NA,US,US-IA
Cedar City Regional Airport,37.70100021,-113.098999,5622,NA,US,US-UT
Chadron Municipal Airport,42.83760071,-103.0950012,3297,NA,US,US-NE
Childress Municipal Airport,34.43379974,-100.288002,1954,NA,US,US-TX
Jack Mc Namara Field Airport,41.78020096,-124.2369995,61,NA,US,US-CA
Westover ARB/Metropolitan Airport,42.19400024,-72.53479767,241,NA,US,US-MA
Bob Sikes Airport,30.77879906,-86.52210236,213,NA,US,US-FL
Cuyahoga County Airport,41.56510162,-81.48639679,879,NA,US,US-OH
Cape Girardeau Regional Airport,37.22529984,-89.57080078,342,NA,US,US-MO
Lovell Field,35.03530121,-85.20379639,683,NA,US,US-TN
Charlottesville Albemarle Airport,38.1385994,-78.45290375,639,NA,US,US-VA
Charleston Air Force Base-International Airport,32.89860153,-80.04049683,46,NA,US,US-SC
The Eastern Iowa Airport,41.88470078,-91.71080017,869,NA,US,US-IA
Chippewa County International Airport,46.25080109,-84.47239685,800,NA,US,US-MI
North Central West Virginia Airport,39.29660034,-80.22810364,1217,NA,US,US-WV
Cleveland Hopkins International Airport,41.4117012,-81.84980011,791,NA,US,US-OH
Easterwood Field,30.58860016,-96.36380005,320,NA,US,US-TX
William R Fairchild International Airport,48.12020111,-123.5,291,NA,US,US-WA
Charlotte Douglas International Airport,35.2140007,-80.94309998,748,NA,US,US-NC
John Glenn Columbus International Airport,39.998001,-82.891899,815,NA,US,US-OH
University of Illinois Willard Airport,40.03919983,-88.27809906,755,NA,US,US-IL
Houghton County Memorial Airport,47.16839981,-88.4890976,1095,NA,US,US-MI
Cavern City Air Terminal,32.33750153,-104.2630005,3295,NA,US,US-NM
Chanute Martin Johnson Airport,37.66880035,-95.48509979,1002,NA,US,US-KS
Yellowstone Regional Airport,44.52019882,-109.0240021,5102,NA,US,US-WY
Coeur D'Alene - Pappy Boyington Field,47.77429962,-116.8199997,2320,NA,US,US-ID
Patrick Air Force Base,28.23489952,-80.61009979,8,NA,US,US-FL
Concord Municipal Airport,43.20270157,-71.50229645,342,NA,US,US-NH
City of Colorado Springs Municipal Airport,38.80580139,-104.7009964,6187,NA,US,US-CO
Columbia Regional Airport,38.81809998,-92.21959686,889,NA,US,US-MO
Casper-Natrona County International Airport,42.90800095,-106.4639969,5350,NA,US,US-WY
Grand Strand Airport,33.81169891,-78.72389984,32,NA,US,US-SC
Jacksonville Executive at Craig Airport,30.3362999,-81.51439667,41,NA,US,US-FL
Corpus Christi International Airport,27.77039909,-97.50119781,44,NA,US,US-TX
Mc Clellan-Palomar Airport,33.12829971,-117.2799988,331,NA,US,US-CA
Yeager Airport,38.37310028,-81.59320068,981,NA,US,US-WV
Columbus Metropolitan Airport,32.5163002,-84.93890381,397,NA,US,US-GA
Crossville Memorial Whitson Field,35.95130157,-85.08499908,1881,NA,US,US-TN
Cut Bank International Airport,48.60839844,-112.3759995,3854,NA,US,US-MT
Jim Hamilton L.B. Owens Airport,33.97050095,-80.99520111,193,NA,US,US-SC
Cincinnati Northern Kentucky International Airport,39.04880142,-84.6678009,896,NA,US,US-KY
Corvallis Municipal Airport,44.49720001,-123.2900009,250,NA,US,US-OR
Cannon Air Force Base,34.38280106,-103.3219986,4295,NA,US,US-NM
Central Wisconsin Airport,44.77759933,-89.66680145,1277,NA,US,US-WI
Conroe-North Houston Regional Airport,30.351801,-95.414497,245,NA,US,US-TX
Cheyenne Regional Jerry Olson Field,41.15570068,-104.8119965,6159,NA,US,US-WY
Davison Army Air Field,38.71500015,-77.18099976,73,NA,US,US-VA
Daytona Beach International Airport,29.179899,-81.058098,34,NA,US,US-FL
Barstow Daggett Airport,34.85369873,-116.7870026,1930,NA,US,US-CA
Dallas Love Field,32.847099,-96.851799,487,NA,US,US-TX
Danville Regional Airport,36.57289886,-79.33609772,571,NA,US,US-VA
James M Cox Dayton International Airport,39.90240097,-84.2193985,1009,NA,US,US-OH
Dubuque Regional Airport,42.40200043,-90.70950317,1077,NA,US,US-IA
Ronald Reagan Washington National Airport,38.8521,-77.037697,15,NA,US,US-DC
Dodge City Regional Airport,37.76340103,-99.96559906,2594,NA,US,US-KS
Decatur Airport,39.83459854,-88.86569977,682,NA,US,US-IL
Denver International Airport,39.86169815,-104.6729965,5431,NA,US,US-CO
Coleman A. Young Municipal Airport,42.40919876,-83.00990295,626,NA,US,US-MI
Dallas Fort Worth International Airport,32.89680099,-97.03800201,607,NA,US,US-TX
Dothan Regional Airport,31.32130051,-85.44960022,401,NA,US,US-AL
Dalhart Municipal Airport,36.02259827,-102.5469971,3991,NA,US,US-TX
Dickinson Theodore Roosevelt Regional Airport,46.79740143,-102.802002,2592,NA,US,US-ND
Laughlin Air Force Base,29.35950089,-100.7779999,1082,NA,US,US-TX
Duluth International Airport,46.84209824,-92.19360352,1428,NA,US,US-MN
Columbia Gorge Regional the Dalles Municipal Airport,45.61849976,-121.1669998,247,NA,US,US-OR
Davis Monthan Air Force Base,32.16650009,-110.8830032,2704,NA,US,US-AZ
Deming Municipal Airport,32.26229858,-107.7210007,4314,NA,US,US-NM
Daniel Field,33.46649933,-82.03939819,423,NA,US,US-GA
Dover Air Force Base,39.12950134,-75.46600342,24,NA,US,US-DE
Dupage Airport,41.90779877,-88.24859619,759,NA,US,US-IL
Desert Rock Airport,36.6194,-116.032997,3314,NA,US,US-NV
Beauregard Regional Airport,30.83169937,-93.33989716,202,NA,US,US-LA
Del Rio International Airport,29.37420082,-100.927002,1002,NA,US,US-TX
Des Moines International Airport,41.5340004,-93.6631012,958,NA,US,US-IA
Detroit Metropolitan Wayne County Airport,42.21239853,-83.35340118,645,NA,US,US-MI
Bisbee Douglas International Airport,31.46899986,-109.6039963,4154,NA,US,US-AZ
DuBois Regional Airport,41.17829895,-78.8986969,1817,NA,US,US-PA
Dyess Air Force Base,32.42079926,-99.854599,1789,NA,US,US-TX
Pangborn Memorial Airport,47.39889908,-120.2070007,1249,NA,US,US-WA
Chippewa Valley Regional Airport,44.86579895,-91.48429871,913,NA,US,US-WI
Elizabeth City Regional Airport & Coast Guard Air Station,36.26060104,-76.17459869,12,NA,US,US-NC
Northwest Florida Beaches International Airport,30.357106,-85.795414,69,NA,US,US-FL
Edwards Air Force Base,34.905399,-117.884003,2312,NA,US,US-CA
Needles Airport,34.7663002,-114.6230011,983,NA,US,US-CA
Dillant Hopkins Airport,42.89839935,-72.27079773,488,NA,US,US-NH
Shelby County Airport,33.17699814,-86.78279877,586,NA,US,US-AL
Ellington Airport,29.6072998,-95.15879822,32,NA,US,US-TX
Eagle County Regional Airport,39.64260101,-106.9179993,6548,NA,US,US-CO
Duke Field,30.65040016,-86.52290344,191,NA,US,US-FL
Murray Field,40.80339813,-124.112999,7,NA,US,US-CA
Elkins-Randolph Co-Jennings Randolph Field,38.88940048,-79.85710144,1987,NA,US,US-WV
Elko Regional Airport,40.82490158,-115.7919998,5140,NA,US,US-NV
South Arkansas Regional At Goodwin Field,33.22100067,-92.81330109,277,NA,US,US-AR
Elmira Corning Regional Airport,42.15990067,-76.89160156,954,NA,US,US-NY
Ely Municipal Airport,47.82450104,-91.83070374,1456,NA,US,US-MN
El Paso International Airport,31.80719948,-106.3779984,3959,NA,US,US-TX
Ely Airport Yelland Field,39.29970169,-114.8420029,6259,NA,US,US-NV
Vance Air Force Base,36.33919907,-97.91649628,1307,NA,US,US-OK
Wendover Airport,40.71870041,-114.0309982,4237,NA,US,US-UT
Kenosha Regional Airport,42.59569931,-87.92780304,742,NA,US,US-WI
Erie International Tom Ridge Field,42.08312701,-80.17386675,732,NA,US,US-PA
Esler Regional Airport,31.39489937,-92.29579926,112,NA,US,US-LA
Mahlon Sweet Field,44.12459946,-123.211998,374,NA,US,US-OR
Evansville Regional Airport,38.03699875,-87.53240204,418,NA,US,US-IN
Evanston-Uinta County Airport-Burns Field,41.27479935,-111.0350037,7143,NA,US,US-WY
New Bedford Regional Airport,41.67610168,-70.95690155,80,NA,US,US-MA
Coastal Carolina Regional Airport,35.07300186,-77.04290009,18,NA,US,US-NC
Newark Liberty International Airport,40.69250107,-74.16870117,18,NA,US,US-NJ
Key West International Airport,24.55610085,-81.75959778,3,NA,US,US-FL
Felker Army Air Field,37.13249969,-76.6088028,12,NA,US,US-VA
Hector International Airport,46.92070007,-96.81580353,902,NA,US,US-ND
Fresno Yosemite International Airport,36.77619934,-119.7180023,336,NA,US,US-CA
Fayetteville Regional Grannis Field,34.99119949,-78.88030243,189,NA,US,US-NC
Simmons Army Air Field,35.13180161,-78.93669891,244,NA,US,US-NC
Butts AAF (Fort Carson) Air Field,38.67839813,-104.7570038,5838,NA,US,US-CO
Findlay Airport,41.01350021,-83.66870117,813,NA,US,US-OH
Wright-Patterson Air Force Base,39.8260994,-84.0483017,823,NA,US,US-OH
Sierra Vista Municipal Libby Army Air Field,31.58849907,-110.3440018,4719,NA,US,US-AZ
Venango Regional Airport,41.37789917,-79.86039734,1540,NA,US,US-PA
Flagstaff Pulliam Airport,35.13850021,-111.6709976,7014,NA,US,US-AZ
Fort Lauderdale Hollywood International Airport,26.07259941,-80.15270233,9,NA,US,US-FL
Florence Regional Airport,34.1853981,-79.72389984,146,NA,US,US-SC
Tipton Airport,39.08539963,-76.75939941,150,NA,US,US-MD
Four Corners Regional Airport,36.74119949,-108.2300034,5506,NA,US,US-NM
Page Field,26.58659935,-81.86329651,17,NA,US,US-FL
Bishop International Airport,42.9654007,-83.74359894,782,NA,US,US-MI
Fort Dodge Regional Airport,42.55149841,-94.19259644,1156,NA,US,US-IA
Topeka Regional Airport - Forbes Field,38.95090103,-95.66359711,1078,NA,US,US-KS
St Lucie County International Airport,27.49510002,-80.36830139,24,NA,US,US-FL
Republic Airport,40.72880173,-73.41339874,82,NA,US,US-NY
Marshall Army Air Field,39.05530167,-96.76450348,1065,NA,US,US-KS
Joe Foss Field Airport,43.58200073,-96.74189758,1429,NA,US,US-SD
Henry Post Army Air Field (Fort Sill),34.64979935,-98.40219879,1189,NA,US,US-OK
Fort Smith Regional Airport,35.33660126,-94.36740112,469,NA,US,US-AR
Fort Stockton Pecos County Airport,30.91570091,-102.9160004,3011,NA,US,US-TX
Godman Army Air Field,37.90710068,-85.9720993,756,NA,US,US-KY
Fort Worth Meacham International Airport,32.819801,-97.362396,710,NA,US,US-TX
Fulton County Airport Brown Field,33.77909851,-84.52140045,841,NA,US,US-GA
Fort Wayne International Airport,40.97850037,-85.19509888,814,NA,US,US-IN
Fort Lauderdale Executive Airport,26.19729996,-80.17070007,13,NA,US,US-FL
Drake Field,36.00510025,-94.17009735,1251,NA,US,US-AR
Gillette Campbell County Airport,44.34889984,-105.5390015,4365,NA,US,US-WY
Garden City Regional Airport,37.92750168,-100.723999,2891,NA,US,US-KS
Grand Canyon National Park Airport,35.95240021,-112.1470032,6609,NA,US,US-AZ
Dawson Community Airport,47.13869858,-104.8069992,2458,NA,US,US-MT
Spokane International Airport,47.61989975,-117.5339966,2376,NA,US,US-WA
Grand Forks International Airport,47.949299,-97.176102,845,NA,US,US-ND
Floyd Bennett Memorial Airport,43.34120178,-73.61029816,328,NA,US,US-NY
East Texas Regional Airport,32.38399887,-94.71150208,365,NA,US,US-TX
Wokal Field Glasgow International Airport,48.212502,-106.614998,2296,NA,US,US-MT
Grand Junction Regional Airport,39.12239838,-108.5270004,4858,NA,US,US-CO
Renner Field-Goodland Municipal Airport,39.37060165,-101.6989975,3656,NA,US,US-KS
Mid Delta Regional Airport,33.48289871,-90.98560333,131,NA,US,US-MS
Scholes International At Galveston Airport,29.26530075,-94.86039734,6,NA,US,US-TX
Greenville Downtown Airport,34.84790039,-82.34999847,1048,NA,US,US-SC
Gainesville Regional Airport,29.69009972,-82.27179718,152,NA,US,US-FL
Groton New London Airport,41.33010101,-72.04509735,9,NA,US,US-CT
Glacier Park International Airport,48.3105011,-114.2559967,2977,NA,US,US-MT
Gulfport Biloxi International Airport,30.40730095,-89.07009888,28,NA,US,US-MS
Austin Straubel International Airport,44.48509979,-88.12960052,695,NA,US,US-WI
Gray Army Air Field,47.07920074,-122.5810013,300,NA,US,US-WA
Central Nebraska Regional Airport,40.96749878,-98.30960083,1847,NA,US,US-NE
Robert Gray  Army Air Field Airport,31.06719971,-97.8289032,1015,NA,US,US-TX
Gerald R. Ford International Airport,42.88079834,-85.52279663,794,NA,US,US-MI
Seymour Johnson Air Force Base,35.33940125,-77.96060181,109,NA,US,US-NC
Piedmont Triad International Airport,36.09780121,-79.93730164,925,NA,US,US-NC
Greenville Spartanburg International Airport,34.89569855,-82.21890259,964,NA,US,US-SC
Wheeler Sack Army Air Field,44.05559921,-75.71949768,688,NA,US,US-NY
Great Falls International Airport,47.48199844,-111.3710022,3680,NA,US,US-MT
Golden Triangle Regional Airport,33.45029831,-88.59140015,264,NA,US,US-MS
Gallup Municipal Airport,35.51110077,-108.7890015,6472,NA,US,US-NM
Grissom Air Reserve Base,40.64810181,-86.15209961,812,NA,US,US-IN
Guymon Municipal Airport,36.68510056,-101.5080032,3123,NA,US,US-OK
Greenwoodâ€“Leflore Airport,33.49430084,-90.08470154,162,NA,US,US-MS
Gary Chicago International Airport,41.61629868,-87.41280365,591,NA,US,US-IN
Hattiesburg Bobby L Chain Municipal Airport,31.26479912,-89.25279999,151,NA,US,US-MS
Hobart Regional Airport,34.991317,-99.051313,1563,NA,US,US-OK
Hartford Brainard Airport,41.73669815,-72.6493988,18,NA,US,US-CT
Hagerstown Regional Richard A Henson Field,39.707901,-77.72949982,703,NA,US,US-MD
Jack Northrop Field Hawthorne Municipal Airport,33.922798,-118.334999,66,NA,US,US-CA
Range Regional Airport,47.38660049,-92.83899689,1354,NA,US,US-MN
Hill Air Force Base,41.12403,-111.973086,4789,NA,US,US-UT
Portland Hillsboro Airport,45.540401,-122.949997,208,NA,US,US-OR
Hickory Regional Airport,35.74110031,-81.38950348,1190,NA,US,US-NC
Wheeling Ohio County Airport,40.17499924,-80.64630127,1195,NA,US,US-WV
Helena Regional Airport,46.60680008,-111.9830017,3877,NA,US,US-MT
Hood Army Air Field,31.13870049,-97.71450043,924,NA,US,US-TX
Holloman Air Force Base,32.85250092,-106.1070023,4093,NA,US,US-NM
Lea County Regional Airport,32.6875,-103.2170029,3661,NA,US,US-NM
Huron Regional Airport,44.3852005,-98.22850037,1289,NA,US,US-SD
Campbell AAF (Fort Campbell) Air Field,36.66859818,-87.49620056,573,NA,US,US-KY
Memorial Field,34.47800064,-93.09619904,540,NA,US,US-AR
William P Hobby Airport,29.64539909,-95.27890015,46,NA,US,US-TX
Westchester County Airport,41.06700134,-73.70760345,439,NA,US,US-NY
Bowerman Airport,46.97119904,-123.9369965,18,NA,US,US-WA
Valley International Airport,26.22850037,-97.65440369,36,NA,US,US-TX
Boone County Airport,36.26150131,-93.15470123,1365,NA,US,US-AR
Hurlburt Field,30.42779922,-86.68930054,38,NA,US,US-FL
Homestead ARB Airport,25.48859978,-80.38359833,5,NA,US,US-FL
Huntsville International Carl T Jones Field,34.6371994,-86.77510071,629,NA,US,US-AL
Tri-State/Milton J. Ferguson Field,38.36669922,-82.55799866,828,NA,US,US-WV
Redstone Army Air Field,34.67869949,-86.68479919,684,NA,US,US-AL
Terre Haute International Hulman Field,39.45149994,-87.30760193,589,NA,US,US-IN
Houlton International Airport,46.12310028,-67.792099,489,NA,US,US-ME
Hutchinson Municipal Airport,38.06549835,-97.86060333,1543,NA,US,US-KS
Tweed New Haven Airport,41.26369858,-72.88680267,12,NA,US,US-CT
Havre City County Airport,48.54299927,-109.762001,2591,NA,US,US-MT
Barnstable Municipal Boardman Polando Field,41.66930008,-70.28040314,54,NA,US,US-MA
San Marcos Regional Airport,29.8927,-97.862999,597,NA,US,US-TX
Sawyer County Airport,46.02519989,-91.44429779,1216,NA,US,US-WI
Hays Regional Airport,38.84220123,-99.27320099,1999,NA,US,US-KS
Mc Connell Air Force Base,37.62189865,-97.26820374,1371,NA,US,US-KS
Washington Dulles International Airport,38.94449997,-77.45580292,312,NA,US,US-DC
Niagara Falls International Airport,43.1072998,-78.94619751,589,NA,US,US-NY
George Bush Intercontinental Houston Airport,29.9843998,-95.34140015,97,NA,US,US-TX
Wichita Mid Continent Airport,37.64989853,-97.43309784,1333,NA,US,US-KS
Idaho Falls Regional Airport,43.514599,-112.070999,4744,NA,US,US-ID
Greater Kankakee Airport,41.07139969,-87.84629822,630,NA,US,US-IL
New Castle Airport,39.67869949,-75.60649872,80,NA,US,US-DE
Wilmington International Airport,34.27059937,-77.90260315,32,NA,US,US-NC
Wilmington Airpark,39.42789841,-83.792099,1077,NA,US,US-OH
Indianapolis International Airport,39.7173,-86.294403,797,NA,US,US-IN
Winkler County Airport,31.77960014,-103.2009964,2822,NA,US,US-TX
Falls International Airport,48.56620026,-93.40309906,1185,NA,US,US-MN
Smith Reynolds Airport,36.13370132,-80.22200012,969,NA,US,US-NC
Winslow Lindbergh Regional Airport,35.02190018,-110.7229996,4941,NA,US,US-AZ
Imperial County Airport,32.83420181,-115.5790024,-54,NA,US,US-CA
Williamsport Regional Airport,41.2417984,-76.9210968,529,NA,US,US-PA
Kirksville Regional Airport,40.09349823,-92.54489899,966,NA,US,US-MO
Kissimmee Gateway Airport,28.28980064,-81.43710327,82,NA,US,US-FL
Sloulin Field International Airport,48.17789841,-103.6419983,1982,NA,US,US-ND
Kinston Regional Jetport At Stallings Field,35.33140183,-77.6088028,93,NA,US,US-NC
Long Island Mac Arthur Airport,40.79520035,-73.10019684,99,NA,US,US-NY
Ithaca Tompkins Regional Airport,42.49100113,-76.45839691,1099,NA,US,US-NY
Phoenix-Mesa-Gateway Airport,33.30780029,-111.6549988,1382,NA,US,US-AZ
Jackson Hole Airport,43.6072998,-110.737999,6451,NA,US,US-WY
Jackson-Medgar Wiley Evers International Airport,32.31119919,-90.07589722,346,NA,US,US-MS
Jacksonville International Airport,30.49410057,-81.68789673,30,NA,US,US-FL
Jonesboro Municipal Airport,35.83169937,-90.64640045,262,NA,US,US-AR
Kimble County Airport,30.51129913,-99.7634964,1749,NA,US,US-TX
John F Kennedy International Airport,40.63980103,-73.77890015,13,NA,US,US-NY
Chautauqua County-Jamestown Airport,42.15340042,-79.25800323,1723,NA,US,US-NY
Julian Carroll Airport,37.59389877,-83.31729889,1381,NA,US,US-KY
Joplin Regional Airport,37.15179825,-94.49829865,981,NA,US,US-MO
Jamestown Regional Airport,46.92969894,-98.67819977,1500,NA,US,US-ND
John Murtha Johnstown Cambria County Airport,40.31610107,-78.83390045,2284,NA,US,US-PA
Jackson County Reynolds Field,42.25979996,-84.45939636,1001,NA,US,US-MI
Southwest Washington Regional Airport,46.11800003,-122.8980026,20,NA,US,US-WA
Purdue University Airport,40.41230011,-86.93689728,606,NA,US,US-IN
Lakeland Linder Regional Airport,27.98889923,-82.01860046,142,NA,US,US-FL
Capital City Airport,42.77870178,-84.58740234,861,NA,US,US-MI
Laramie Regional Airport,41.31209946,-105.6750031,7284,NA,US,US-WY
McCarran International Airport,36.08010101,-115.1520004,2181,NA,US,US-NV
Lawton Fort Sill Regional Airport,34.56769943,-98.41660309,1110,NA,US,US-OK
Los Angeles International Airport,33.94250107,-118.4079971,125,NA,US,US-CA
Lubbock Preston Smith International Airport,33.663601,-101.822998,3282,NA,US,US-TX
Arnold Palmer Regional Airport,40.27590179,-79.40480042,1199,NA,US,US-PA
North Platte Regional Airport Lee Bird Field,41.12620163,-100.6839981,2777,NA,US,US-NE
Liberal Mid-America Regional Airport,37.0442009,-100.9599991,2885,NA,US,US-KS
Lumberton Regional Airport,34.60990143,-79.05940247,126,NA,US,US-NC
Texas Gulf Coast Regional Airport,29.10860062,-95.46209717,25,NA,US,US-TX
Lake Charles Regional Airport,30.12610054,-93.22329712,15,NA,US,US-LA
Rickenbacker International Airport,39.813801,-82.927803,744,NA,US,US-OH
Lebanon Municipal Airport,43.62609863,-72.30419922,603,NA,US,US-NH
Leesburg International Airport,28.82309914,-81.80870056,76,NA,US,US-FL
Blue Grass Airport,38.03649902,-84.60590363,979,NA,US,US-KY
Langley Air Force Base,37.082901,-76.36049652,11,NA,US,US-VA
Angelina County Airport,31.23399925,-94.75,296,NA,US,US-TX
Lafayette Regional Airport,30.20529938,-91.98760223,42,NA,US,US-LA
La Guardia Airport,40.77719879,-73.87259674,21,NA,US,US-NY
Long Beach /Daugherty Field/ Airport,33.81769943,-118.1520004,60,NA,US,US-CA
Logan-Cache Airport,41.79119873,-111.8519974,4457,NA,US,US-UT
Bill & Hillary Clinton National Airport/Adams Field,34.72940063,-92.22429657,262,NA,US,US-AR
Monticello Municipal Ellis Field,33.6385994,-91.75099945,270,NA,US,US-AR
Crater Lake-Klamath Regional Airport,42.156101,-121.733002,4095,NA,US,US-OR
Hunt Field,42.81520081,-108.7300034,5586,NA,US,US-WY
Lincoln Airport,40.85100174,-96.75920105,1219,NA,US,US-NE
Lancaster Airport,40.12170029,-76.2960968,403,NA,US,US-PA
Derby Field,40.06639862,-118.5650024,3904,NA,US,US-NV
Bowman Field,38.22800064,-85.66369629,546,NA,US,US-KY
London-Corbin Airport/Magee Field,37.0821991,-84.0848999,1212,NA,US,US-KY
Laredo International Airport,27.54380035,-99.46160126,508,NA,US,US-TX
Little Rock Air Force Base,34.91690063,-92.14969635,311,NA,US,US-AR
Las Cruces International Airport,32.28939819,-106.9219971,4456,NA,US,US-NM
La Crosse Municipal Airport,43.879002,-91.256699,655,NA,US,US-WI
Lawson Army Air Field (Fort Benning),32.33729935,-84.99130249,232,NA,US,US-GA
Nellis Air Force Base,36.23619843,-115.0339966,1870,NA,US,US-NV
Altus Air Force Base,34.667099,-99.26670074,1382,NA,US,US-OK
Luke Air Force Base,33.53499985,-112.3830032,1085,NA,US,US-AZ
Cincinnati Municipal Airport Lunken Field,39.10329819,-84.41860199,483,NA,US,US-OH
Mission Field,45.69940186,-110.447998,4660,NA,US,US-MT
Las Vegas Municipal Airport,35.65420151,-105.1419983,6877,NA,US,US-NM
Greenbrier Valley Airport,37.85829926,-80.39949799,2302,NA,US,US-WV
Lawrence Municipal Airport,42.71720123,-71.12339783,148,NA,US,US-MA
Lewiston Nez Perce County Airport,46.37450027,-117.0149994,1442,NA,US,US-ID
Lewistown Municipal Airport,47.04930115,-109.4670029,4170,NA,US,US-MT
Lynchburg Regional Preston Glenn Field,37.3266983,-79.20040131,938,NA,US,US-VA
Midland International Airport,31.94249916,-102.2020035,2871,NA,US,US-TX
Mobridge Municipal Airport,45.54650116,-100.4079971,1716,NA,US,US-SD
MBS International Airport,43.53290176,-84.07959747,668,NA,US,US-MI
Mc Comb/Pike County Airport/John E Lewis Field,31.17849922,-90.47190094,413,NA,US,US-MS
Mc Clellan Airfield,38.66759872,-121.401001,77,NA,US,US-CA
Merced Regional Macready Field,37.28469849,-120.5139999,155,NA,US,US-CA
Mac Dill Air Force Base,27.84930038,-82.52120209,14,NA,US,US-FL
Kansas City International Airport,39.2976,-94.713898,1026,NA,US,US-MO
Mc Cook Ben Nelson Regional Airport,40.20629883,-100.5920029,2583,NA,US,US-NE
Middle Georgia Regional Airport,32.69279861,-83.64920044,354,NA,US,US-GA
Orlando International Airport,28.42939949,-81.30899811,96,NA,US,US-FL
Mason City Municipal Airport,43.15779877,-93.33129883,1213,NA,US,US-IA
Southern Illinois Airport,37.77809906,-89.2519989,411,NA,US,US-IL
Harrisburg International Airport,40.19350052,-76.76339722,310,NA,US,US-PA
Chicago Midway International Airport,41.7859993,-87.75240326,620,NA,US,US-IL
Key Field,32.33259964,-88.75189972,297,NA,US,US-MS
Memphis International Airport,35.04240036,-89.97669983,341,NA,US,US-TN
Castle Airport,37.38050079,-120.5680008,191,NA,US,US-CA
Mansfield Lahm Regional Airport,40.82139969,-82.51660156,1297,NA,US,US-OH
Mc Allen Miller International Airport,26.17580032,-98.23860168,107,NA,US,US-TX
Rogue Valley International Medford Airport,42.37419891,-122.8730011,1335,NA,US,US-OR
Dobbins Air Reserve Base,33.91540146,-84.51629639,1068,NA,US,US-GA
Montgomery Regional (Dannelly Field) Airport,32.30059814,-86.39399719,221,NA,US,US-AL
Morgantown Municipal Walter L. Bill Hart Field,39.64289856,-79.91629791,1248,NA,US,US-WV
Manhattan Regional Airport,39.14099884,-96.67079926,1057,NA,US,US-KS
Sacramento Mather Airport,38.55390167,-121.2979965,98,NA,US,US-CA
Manchester Airport,42.93259811,-71.43569946,266,NA,US,US-NH
Miami International Airport,25.79319954,-80.29060364,8,NA,US,US-FL
Minot Air Force Base,48.4156,-101.358002,1667,NA,US,US-ND
Delaware County Johnson Field,40.24229813,-85.39589691,937,NA,US,US-IN
Millville Municipal Airport,39.367802,-75.072197,85,NA,US,US-NJ
Charles B. Wheeler Downtown Airport,39.12319946,-94.59279633,759,NA,US,US-MO
General Mitchell International Airport,42.94720078,-87.89659882,723,NA,US,US-WI
Mc Kellar Sipes Regional Airport,35.59989929,-88.91560364,434,NA,US,US-TN
Melbourne International Airport,28.10280037,-80.64530182,33,NA,US,US-FL
Mc Alester Regional Airport,34.882401,-95.783501,770,NA,US,US-OK
Quad City International Airport,41.44850159,-90.50749969,590,NA,US,US-IL
Frank Wiley Field,46.4280014,-105.8860016,2630,NA,US,US-MT
Monroe Regional Airport,32.51089859,-92.03769684,79,NA,US,US-LA
Mc Entire Joint National Guard Base,33.92079926,-80.80130005,254,NA,US,US-SC
Morristown Municipal Airport,40.79940033,-74.41490173,187,NA,US,US-NJ
Mc Minnville Municipal Airport,45.19440079,-123.1360016,163,NA,US,US-OR
Mobile Regional Airport,30.69120026,-88.24279785,219,NA,US,US-AL
Modesto City Co-Harry Sham Field,37.62580109,-120.9540024,97,NA,US,US-CA
Minot International Airport,48.25939941,-101.2799988,1716,NA,US,US-ND
Edward F Knapp State Airport,44.20349884,-72.56230164,1166,NA,US,US-VT
Smyrna Airport,36.00899887,-86.52010345,543,NA,US,US-TN
Eastern WV Regional Airport/Shepherd Field,39.40190125,-77.98459625,565,NA,US,US-WV
Monterey Peninsula Airport,36.5870018,-121.8430023,257,NA,US,US-CA
Northwest Alabama Regional Airport,34.74530029,-87.61019897,551,NA,US,US-AL
Dane County Regional Truax Field,43.13990021,-89.33750153,887,NA,US,US-WI
Missoula International Airport,46.91630173,-114.0910034,3206,NA,US,US-MT
Minneapolis-St Paul International/Wold-Chamberlain Airport,44.88199997,-93.22180176,841,NA,US,US-MN
Massena International Richards Field,44.93579865,-74.84559631,215,NA,US,US-NY
Louis Armstrong New Orleans International Airport,29.99340057,-90.25800323,4,NA,US,US-LA
Selfridge Air National Guard Base Airport,42.613463,-82.836919,580,NA,US,US-MI
The Florida Keys Marathon Airport,24.726101,-81.051399,5,NA,US,US-FL
Montrose Regional Airport,38.50979996,-107.8939972,5759,NA,US,US-CO
Martin State Airport,39.325699,-76.413803,21,NA,US,US-MD
Muir Army Air Field (Fort Indiantown Gap) Airport,40.43479919,-76.56939697,488,NA,US,US-PA
Mountain Home Air Force Base,43.043598,-115.872002,2996,NA,US,US-ID
Grant County International Airport,47.20769882,-119.3199997,1189,NA,US,US-WA
Maxwell Air Force Base,32.3829,-86.365799,171,NA,US,US-AL
McCall Municipal Airport,44.88970184,-116.1009979,5024,NA,US,US-ID
Myrtle Beach International Airport,33.67969894,-78.92829895,25,NA,US,US-SC
Yuba County Airport,39.09780121,-121.5699997,64,NA,US,US-CA
Beaufort MCAS - Merritt Field,32.47740173,-80.72319794,37,NA,US,US-SC
New Orleans NAS JRB/Alvin Callender Field,29.82530022,-90.03500366,2,NA,US,US-LA
New River MCAS /H/ /Mccutcheon Fld/ Airport,34.70840073,-77.43969727,26,NA,US,US-NC
Whiting Field Naval Air Station South Airport,30.70439911,-87.02300262,177,NA,US,US-FL
Lakehurst Maxfield Field Airport,40.03329849,-74.353302,101,NA,US,US-NJ
Lakefront Airport,30.04240036,-90.02829742,8,NA,US,US-LA
Camp Pendleton MCAS (Munn Field) Airport,33.30130005,-117.3550034,78,NA,US,US-CA
Fallon Naval Air Station,39.41659927,-118.7009964,3934,NA,US,US-NV
NAS Fort Worth JRB/Carswell Field,32.76919937,-97.4414978,650,NA,US,US-TX
Corpus Christi Naval Air Station/Truax Field,27.69260025,-97.29109955,18,NA,US,US-TX
Norfolk Naval Station (Chambers Field),36.937599,-76.289299,17,NA,US,US-VA
Patuxent River Naval Air Station (Trapnell Field),38.285999,-76.411797,39,NA,US,US-MD
Brunswick Executive Airport,43.89220047,-69.93859863,72,NA,US,US-ME
China Lake Naws (Armitage Field) Airport,35.6853981,-117.6920013,2283,NA,US,US-CA
Jacksonville Naval Air Station (Towers Field),30.2358,-81.680603,21,NA,US,US-FL
El Centro Naval Air Facility,32.829201,-115.671997,-42,NA,US,US-CA
Cherry Point MCAS /Cunningham Field/,34.90090179,-76.88069916,29,NA,US,US-NC
Miramar Marine Corps Air Station - Mitscher Field,32.86840057,-117.1429977,477,NA,US,US-CA
Lemoore Naval Air Station (Reeves Field) Airport,36.33300018,-119.9520035,232,NA,US,US-CA
Meridian Naval Air Station,32.55210114,-88.55560303,316,NA,US,US-MS
Pensacola Naval Air Station/Forrest Sherman Field,30.35269928,-87.31860352,28,NA,US,US-FL
Millington Regional Jetport Airport,35.3567009,-89.87030029,320,NA,US,US-TN
Kingsville Naval Air Station,27.50720024,-97.80970001,50,NA,US,US-TX
Naval Air Station Key West/Boca Chica Field,24.57579994,-81.68890381,6,NA,US,US-FL
Naval Station Mayport (Admiral David L. Mcdonald Field),30.39109993,-81.42469788,15,NA,US,US-FL
Whiting Field Naval Air Station - North,30.7241993,-87.02189636,199,NA,US,US-FL
Point Mugu Naval Air Station (Naval Base Ventura Co),34.12030029,-119.1210022,13,NA,US,US-CA
Oceana Naval Air Station,36.820702,-76.033501,23,NA,US,US-VA
Moffett Federal Airfield,37.4161,-122.049004,32,NA,US,US-CA
Whidbey Island Naval Air Station (Ault Field),48.351799,-122.655998,47,NA,US,US-WA
Twentynine Palms (Self) Airport,34.2961998,-116.1620026,2051,NA,US,US-CA
Quantico MCAF /Turner field,38.50170135,-77.30529785,10,NA,US,US-VA
Yuma MCAS/Yuma International Airport,32.65660095,-114.6060028,213,NA,US,US-AZ
North Island Naval Air Station-Halsey Field,32.69919968,-117.2149963,26,NA,US,US-CA
Albert J Ellis Airport,34.82920074,-77.61209869,94,NA,US,US-NC
Metropolitan Oakland International Airport,37.721298,-122.221001,9,NA,US,US-CA
Offutt Air Force Base,41.11830139,-95.91249847,1052,NA,US,US-NE
Karl Stefan Memorial Airport,41.98550034,-97.43509674,1573,NA,US,US-NE
Orangeburg Municipal Airport,33.45679855,-80.85949707,195,NA,US,US-SC
Ogden Hinckley Airport,41.19589996,-112.012001,4473,NA,US,US-UT
Will Rogers World Airport,35.39310074,-97.60070038,1295,NA,US,US-OK
L M Clayton Airport,48.0945015,-105.5749969,1986,NA,US,US-MT
Olympia Regional Airport,46.9693985,-122.9029999,209,NA,US,US-WA
Nogales International Airport,31.4177,-110.848,3955,NA,US,US-AZ
Columbus Municipal Airport,41.44800186,-97.34259796,1447,NA,US,US-NE
Eppley Airfield,41.30319977,-95.89409637,984,NA,US,US-NE
Newport Municipal Airport,44.580399,-124.057999,160,NA,US,US-OR
Ontario International Airport,34.05599976,-117.6009979,944,NA,US,US-CA
Opa-locka Executive Airport,25.907,-80.278397,8,NA,US,US-FL
Quonset State Airport,41.5970993,-71.41210175,18,NA,US,US-RI
Chicago O'Hare International Airport,41.97859955,-87.90480042,672,NA,US,US-IL
Norfolk International Airport,36.89459991,-76.20120239,26,NA,US,US-VA
Worcester Regional Airport,42.26729965,-71.8757019,1009,NA,US,US-MA
Wittman Regional Airport,43.9844017,-88.55699921,808,NA,US,US-WI
The Ohio State University Airport - Don Scott Field,40.0798,-83.072998,905,NA,US,US-OH
Southwest Oregon Regional Airport,43.417099,-124.2460022,17,NA,US,US-OR
Ottumwa Regional Airport,41.10660172,-92.44789886,845,NA,US,US-IA
Owensboro Daviess County Airport,37.74010086,-87.16680145,407,NA,US,US-KY
Norwood Memorial Airport,42.19049835,-71.17289734,49,NA,US,US-MA
Oxnard Airport,34.20080185,-119.2070007,45,NA,US,US-CA
Cairns AAF (Fort Rucker) Air Field,31.27569962,-85.71340179,301,NA,US,US-AL
Snohomish County (Paine Field) Airport,47.90629959,-122.2819977,606,NA,US,US-WA
Barkley Regional Airport,37.06079865,-88.77380371,410,NA,US,US-KY
Tyndall Air Force Base,30.06959915,-85.57540131,17,NA,US,US-FL
Grider Field,34.17309952,-91.93560028,206,NA,US,US-AR
Plattsburgh International Airport,44.65090179,-73.4681015,234,NA,US,US-NY
Palm Beach International Airport,26.68320084,-80.09559631,19,NA,US,US-FL
DeKalb Peachtree Airport,33.87559891,-84.30200195,1003,NA,US,US-GA
Eastern Oregon Regional At Pendleton Airport,45.69509888,-118.8410034,1497,NA,US,US-OR
Portland International Airport,45.58869934,-122.5979996,31,NA,US,US-OR
Page Municipal Airport,36.92610168,-111.447998,4316,NA,US,US-AZ
Pitt Greenville Airport,35.6352005,-77.38529968,26,NA,US,US-NC
Newport News Williamsburg International Airport,37.13190079,-76.49299622,42,NA,US,US-VA
Philadelphia International Airport,39.87189865,-75.2410965,36,NA,US,US-PA
Phoenix Sky Harbor International Airport,33.43429947,-112.012001,1135,NA,US,US-AZ
General Wayne A. Downing Peoria International Airport,40.66419983,-89.69329834,660,NA,US,US-IL
Hattiesburg Laurel Regional Airport,31.46710014,-89.33709717,298,NA,US,US-MS
St Petersburg Clearwater International Airport,27.91020012,-82.68740082,11,NA,US,US-FL
Pocatello Regional Airport,42.90980148,-112.5960007,4452,NA,US,US-ID
Pierre Regional Airport,44.38270187,-100.2860031,1744,NA,US,US-SD
Pittsburgh International Airport,40.49150085,-80.23290253,1203,NA,US,US-PA
Mid Ohio Valley Regional Airport,39.3451004,-81.43920135,858,NA,US,US-WV
Pellston Regional Airport of Emmet County Airport,45.57089996,-84.79669952,721,NA,US,US-MI
Palmdale Regional/USAF Plant 42 Airport,34.62939835,-118.0849991,2543,NA,US,US-CA
Ralph Wenz Field,42.79550171,-109.8069992,7102,NA,US,US-WY
Ponca City Regional Airport,36.73199844,-97.09980011,1008,NA,US,US-OK
Northeast Philadelphia Airport,40.081902,-75.010597,120,NA,US,US-PA
Pensacola Regional Airport,30.47340012,-87.18659973,121,NA,US,US-FL
Pope Field,35.17089844,-79.01450348,217,NA,US,US-NC
Polk Army Air Field,31.0447998,-93.1917038,330,NA,US,US-LA
Dutchess County Airport,41.62659836,-73.88420105,165,NA,US,US-NY
Northern Maine Regional Airport at Presque Isle,46.68899918,-68.0447998,534,NA,US,US-ME
Paso Robles Municipal Airport,35.67290115,-120.6269989,840,NA,US,US-CA
Ernest A. Love Field,34.65449905,-112.4199982,5045,NA,US,US-AZ
Cox Field,33.63660049,-95.45079803,547,NA,US,US-TX
Tri Cities Airport,46.26470184,-119.1190033,410,NA,US,US-WA
Portsmouth International at Pease Airport,43.07789993,-70.82330322,100,NA,US,US-NH
Palm Springs International Airport,33.82970047,-116.5070038,477,NA,US,US-CA
Oakland County International Airport,42.66550064,-83.42009735,980,NA,US,US-MI
Pullman Moscow Regional Airport,46.7439,-117.110001,2556,NA,US,US-WA
Theodore Francis Green State Airport,41.73260117,-71.42040253,55,NA,US,US-RI
Provo Municipal Airport,40.21920013,-111.7229996,4497,NA,US,US-UT
Chicago Executive Airport,42.114222,-87.901494,647,NA,US,US-IL
Portland International Jetport Airport,43.64619827,-70.30930328,76,NA,US,US-ME
Bremerton National Airport,47.49020004,-122.7649994,444,NA,US,US-WA
Riverside Municipal Airport,33.95190048,-117.4449997,819,NA,US,US-CA
Rapid City Regional Airport,44.04529953,-103.0569992,3204,NA,US,US-SD
Red Bluff Municipal Airport,40.15069962,-122.2519989,352,NA,US,US-CA
Ellsworth Air Force Base,44.14500046,-103.1039963,3276,NA,US,US-SD
Redding Municipal Airport,40.50899887,-122.2929993,505,NA,US,US-CA
Reading Regional Carl A Spaatz Field,40.37850189,-75.96520233,344,NA,US,US-PA
Roberts Field,44.2541008,-121.1500015,3080,NA,US,US-OR
Grand Forks Air Force Base,47.96110153,-97.40119934,913,NA,US,US-ND
Raleigh Durham International Airport,35.87760162,-78.78749847,435,NA,US,US-NC
Chicago Rockford International Airport,42.19540024,-89.09719849,742,NA,US,US-IL
Rhinelander Oneida County Airport,45.63119888,-89.46749878,1624,NA,US,US-WI
Richmond International Airport,37.50519943,-77.31970215,167,NA,US,US-VA
Garfield County Regional Airport,39.526299,-107.726997,5548,NA,US,US-CO
March ARB Airport,33.880699,-117.259003,1536,NA,US,US-CA
Riverton Regional Airport,43.06420136,-108.4599991,5525,NA,US,US-WY
Rock Springs Sweetwater County Airport,41.59420013,-109.0650024,6764,NA,US,US-WY
Griffiss International Airport,43.23379898,-75.40699768,504,NA,US,US-NY
Richard B Russell Airport,34.3506012,-85.15799713,644,NA,US,US-GA
Randolph Air Force Base,29.52969933,-98.27890015,761,NA,US,US-TX
New Richmond Regional Airport,45.14830017,-92.5381012,998,NA,US,US-WI
Reno Tahoe International Airport,39.49909973,-119.7679977,4415,NA,US,US-NV
Roanokeâ€“Blacksburg Regional Airport,37.3255,-79.975403,1175,NA,US,US-VA
Greater Rochester International Airport,43.1189003,-77.67240143,559,NA,US,US-NY
Roswell International Air Center Airport,33.30160141,-104.5309982,3671,NA,US,US-NM
Russell Municipal Airport,38.87210083,-98.8117981,1862,NA,US,US-KS
Rochester International Airport,43.90829849,-92.5,1317,NA,US,US-MN
Southwest Florida International Airport,26.53619957,-81.75520325,30,NA,US,US-FL
Rutland - Southern Vermont Regional Airport,43.52939987,-72.94960022,787,NA,US,US-VT
Richard Lloyd Jones Jr Airport,36.03960037,-95.98459625,638,NA,US,US-OK
Redwood Falls Municipal Airport,44.54719925,-95.08229828,1024,NA,US,US-MN
Rocky Mount Wilson Regional Airport,35.85630035,-77.89189911,159,NA,US,US-NC
Rawlins Municipal Airport/Harvey Field,41.80559921,-107.1999969,6813,NA,US,US-WY
Cobb County-Mc Collum Field,34.01319885,-84.59860229,1040,NA,US,US-GA
Sacramento Executive Airport,38.51250076,-121.4929962,24,NA,US,US-CA
Santa Fe Municipal Airport,35.61709976,-106.0889969,6348,NA,US,US-NM
San Diego International Airport,32.73360062,-117.1900024,17,NA,US,US-CA
San Antonio International Airport,29.53370094,-98.46980286,809,NA,US,US-TX
Savannah Hilton Head International Airport,32.12760162,-81.20210266,50,NA,US,US-GA
Sawyer International Airport,46.35359955,-87.395401,1221,NA,US,US-MI
Santa Barbara Municipal Airport,34.42620087,-119.8399963,13,NA,US,US-CA
San Bernardino International Airport,34.09540176,-117.2350006,1159,NA,US,US-CA
South Bend Regional Airport,41.70869827,-86.31729889,799,NA,US,US-IN
San Luis County Regional Airport,35.23680115,-120.6419983,212,NA,US,US-CA
Salisbury Ocean City Wicomico Regional Airport,38.34049988,-75.51029968,52,NA,US,US-MD
Schenectady County Airport,42.85250092,-73.92890167,378,NA,US,US-NY
Stockton Metropolitan Airport,37.89419937,-121.237999,33,NA,US,US-CA
Louisville International Standiford Field,38.1744,-85.736,501,NA,US,US-KY
Brown Field Municipal Airport,32.57229996,-116.9800034,526,NA,US,US-CA
Sidney - Richland Regional Airport,47.706902,-104.193001,1985,NA,US,US-MT
Seattle Tacoma International Airport,47.44900131,-122.3089981,433,NA,US,US-WA
Orlando Sanford International Airport,28.77759933,-81.23750305,55,NA,US,US-FL
Felts Field,47.68280029,-117.322998,1953,NA,US,US-WA
San Francisco International Airport,37.61899948,-122.375,13,NA,US,US-CA
Springfield Branson National Airport,37.24570084,-93.38860321,1268,NA,US,US-MO
Springfield-Beckley Municipal Airport,39.84030151,-83.84020233,1051,NA,US,US-OH
Northeast Florida Regional Airport,29.9592,-81.339798,10,NA,US,US-FL
Sugar Land Regional Airport,29.62229919,-95.65650177,82,NA,US,US-TX
St George Municipal Airport,37.036389,-113.510306,2941,NA,US,US-UT
Sheridan County Airport,44.76919937,-106.9800034,4021,NA,US,US-WY
Shreveport Regional Airport,32.44660187,-93.82559967,258,NA,US,US-LA
Norman Y. Mineta San Jose International Airport,37.362598,-121.929001,62,NA,US,US-CA
San Angelo Regional Mathis Field,31.35770035,-100.4960022,1919,NA,US,US-TX
Fairchild Air Force Base,47.61510086,-117.6559982,2461,NA,US,US-WA
Lackland Air Force Base,29.38419914,-98.58110046,691,NA,US,US-TX
Salt Lake City International Airport,40.78839874,-111.9779968,4227,NA,US,US-UT
Salem Municipal Airport/McNary Field,44.90950012,-123.0029984,214,NA,US,US-OR
Los Alamitos Army Air Field,33.79000092,-118.052002,32,NA,US,US-CA
Adirondack Regional Airport,44.38529968,-74.20619965,1663,NA,US,US-NY
Salina Municipal Airport,38.79100037,-97.65219879,1288,NA,US,US-KS
Lake Cumberland Regional Airport,37.05339813,-84.61589813,927,NA,US,US-KY
Sacramento International Airport,38.69540024,-121.5910034,27,NA,US,US-CA
Lemhi County Airport,45.12379837,-113.8809967,4043,NA,US,US-ID
Santa Maria Pub/Capt G Allan Hancock Field,34.89889908,-120.4570007,261,NA,US,US-CA
John Wayne Airport-Orange County Airport,33.67570114,-117.8679962,56,NA,US,US-CA
Salinas Municipal Airport,36.66279984,-121.6060028,85,NA,US,US-CA
Sidney Municipal-Lloyd W Carr Field,41.10129929,-102.9850006,4313,NA,US,US-NE
Sonora Municipal Airport,30.58569908,-100.6490021,2140,NA,US,US-TX
Abraham Lincoln Capital Airport,39.84410095,-89.67790222,598,NA,US,US-IL
Sheppard Air Force Base-Wichita Falls Municipal Airport,33.9888,-98.491898,1019,NA,US,US-TX
Sarasota Bradenton International Airport,27.39539909,-82.55439758,30,NA,US,US-FL
Sierra Blanca Regional Airport,33.46279907,-105.5350037,6814,NA,US,US-NM
Shaw Air Force Base,33.97269821,-80.47059631,241,NA,US,US-SC
Stinson Municipal Airport,29.33699989,-98.47109985,577,NA,US,US-TX
Malcolm McKinnon Airport,31.15180016,-81.39129639,19,NA,US,US-GA
St Cloud Regional Airport,45.54660034,-94.05989838,1031,NA,US,US-MN
Rosecrans Memorial Airport,39.77190018,-94.90969849,826,NA,US,US-MO
St Louis Lambert International Airport,38.748697,-90.370003,618,NA,US,US-MO
St Paul Downtown Holman Field,44.93450165,-93.05999756,705,NA,US,US-MN
Charles M. Schulz Sonoma County Airport,38.50899887,-122.8130035,128,NA,US,US-CA
Friedman Memorial Airport,43.50439835,-114.2959976,5318,NA,US,US-ID
Spirit of St Louis Airport,38.66210175,-90.65200043,463,NA,US,US-MO
Travis Air Force Base,38.26269913,-121.927002,62,NA,US,US-CA
Sioux Gateway Col. Bud Day Field,42.40259933,-96.38439941,1098,NA,US,US-IA
Saline County Regional Airport,34.59059906,-92.47940063,390,NA,US,US-AR
Hunter Army Air Field,32.00999832,-81.14569855,41,NA,US,US-GA
Stewart International Airport,41.5041008,-74.10479736,491,NA,US,US-NY
Stillwater Regional Airport,36.16120148,-97.08570099,1000,NA,US,US-OK
Syracuse Hancock International Airport,43.11119843,-76.10630035,421,NA,US,US-NY
Whiteman Air Force Base,38.7303009,-93.54789734,870,NA,US,US-MO
Waynesville-St. Robert Regional Forney field,37.74160004,-92.14070129,1159,NA,US,US-MO
Tucumcari Municipal Airport,35.18280029,-103.6029968,4065,NA,US,US-NM
Tuscaloosa Regional Airport,33.22060013,-87.61139679,170,NA,US,US-AL
McChord Air Force Base,47.13769913,-122.4759979,322,NA,US,US-WA
Truth Or Consequences Municipal Airport,33.23690033,-107.2720032,4853,NA,US,US-NM
Teterboro Airport,40.85010147,-74.06079865,9,NA,US,US-NJ
Tinker Air Force Base,35.41469955,-97.38659668,1291,NA,US,US-OK
Tacoma Narrows Airport,47.26789856,-122.5780029,294,NA,US,US-WA
Space Coast Regional Airport,28.51479912,-80.79920197,34,NA,US,US-FL
Tallahassee Regional Airport,30.39649963,-84.35030365,81,NA,US,US-FL
Kendall-Tamiami Executive Airport,25.64789963,-80.43280029,8,NA,US,US-FL
Troy Municipal Airport at N Kenneth Campbell Field,31.860399,-86.012101,398,NA,US,US-AL
Toledo Express Airport,41.58679962,-83.80780029,683,NA,US,US-OH
Philip Billard Municipal Airport,39.06869888,-95.62249756,881,NA,US,US-KS
Tampa International Airport,27.97550011,-82.53320313,26,NA,US,US-FL
Tonopah Airport,38.06019974,-117.086998,5430,NA,US,US-NV
Draughon Miller Central Texas Regional Airport,31.15250015,-97.40779877,682,NA,US,US-TX
Tri-Cities Regional TN/VA Airport,36.475201,-82.407401,1519,NA,US,US-TN
Truckee Tahoe Airport,39.31999969,-120.1399994,5900,NA,US,US-CA
Jacqueline Cochran Regional Airport,33.62670135,-116.1600037,-115,NA,US,US-CA
Portland Troutdale Airport,45.54940033,-122.401001,39,NA,US,US-OR
Trenton Mercer Airport,40.27669907,-74.81349945,213,NA,US,US-NJ
Nasa Shuttle Landing Facility Airport,28.61499977,-80.69450378,10,NA,US,US-FL
Tulsa International Airport,36.19839859,-95.88809967,677,NA,US,US-OK
Tupelo Regional Airport,34.26810074,-88.76989746,346,NA,US,US-MS
Tucson International Airport,32.11610031,-110.9410019,2643,NA,US,US-AZ
Cherry Capital Airport,44.74140167,-85.5821991,624,NA,US,US-MI
Lake Tahoe Airport,38.89390182,-119.9950027,6264,NA,US,US-CA
Joslin Field Magic Valley Regional Airport,42.4818,-114.487999,4154,NA,US,US-ID
Texarkana Regional Webb Field,33.45370102,-93.99099731,390,NA,US,US-AR
Tyler Pounds Regional Airport,32.35409927,-95.40239716,544,NA,US,US-TX
McGhee Tyson Airport,35.81100082,-83.9940033,981,NA,US,US-TN
Aurora State Airport,45.24710083,-122.7699966,200,NA,US,US-OR
Quincy Regional Baldwin Field,39.94269943,-91.19460297,768,NA,US,US-IL
Ukiah Municipal Airport,39.12599945,-123.2009964,614,NA,US,US-CA
University Park Airport,40.84930038,-77.84870148,1239,NA,US,US-PA
University Oxford Airport,34.38430023,-89.53679657,452,NA,US,US-MS
Huntsville Regional Airport,30.74690056,-95.58719635,363,NA,US,US-TX
Moody Air Force Base,30.96780014,-83.19300079,233,NA,US,US-GA
Vandenberg Air Force Base,34.73730087,-120.5839996,369,NA,US,US-CA
Victoria Regional Airport,28.8526001,-96.91850281,115,NA,US,US-TX
Vernal Regional Airport,40.4408989,-109.5100021,5278,NA,US,US-UT
North Las Vegas Airport,36.21070099,-115.1940002,2205,NA,US,US-NV
Valdosta Regional Airport,30.78249931,-83.27670288,203,NA,US,US-GA
Van Nuys Airport,34.20980072,-118.4899979,802,NA,US,US-CA
Volk Field,43.93899918,-90.25340271,912,NA,US,US-WI
Destin-Ft Walton Beach Airport,30.4832,-86.525398,87,NA,US,US-FL
Porter County Municipal Airport,41.45399857,-87.00710297,770,NA,US,US-IN
Vero Beach Regional Airport,27.6556,-80.417901,24,NA,US,US-FL
Miller Field,42.85779953,-100.5479965,2596,NA,US,US-NE
Lake Country Regional Airport,36.59579849,-78.56009674,421,NA,US,US-VA
General WM J Fox Airfield,34.74110031,-118.2190018,2351,NA,US,US-CA
Winnemucca Municipal Airport,40.89659882,-117.8059998,4308,NA,US,US-NV
Robins Air Force Base,32.64009857,-83.59190369,294,NA,US,US-GA
Mc Guire Air Force Base,40.0155983,-74.59169769,131,NA,US,US-NJ
Worland Municipal Airport,43.96569824,-107.9509964,4227,NA,US,US-WY
Cape May County Airport,39.00849915,-74.90830231,23,NA,US,US-NJ
West Woodward Airport,36.438,-99.5226667,2189,NA,US,US-OK
Yellowstone Airport,44.68840027,-111.1179962,6649,NA,US,US-MT
Cape Canaveral AFS Skid Strip,28.46759987,-80.56659698,10,NA,US,US-FL
Northwest Arkansas Regional Airport,36.281898,-94.306801,1287,NA,US,US-AR
Homey (Area 51) Airport,37.23500061,-115.810997,4462,NA,US,US-NV
Willow Run Airport,42.23789978,-83.53040314,716,NA,US,US-MI
Yakima Air Terminal McAllister Field,46.56819916,-120.5439987,1099,NA,US,US-WA
Chan Gurney Municipal Airport,42.91669846,-97.3859024,1306,NA,US,US-SD
Youngstown Warren Regional Airport,41.26070023,-80.67910004,1192,NA,US,US-OH
Zanesville Municipal Airport,39.94440079,-81.89209747,900,NA,US,US-OH
Palmer Buddy Woods Municipal Airport,61.594898,-149.08901,242,NA,US,US-AK
Barter Island LRRS Airport,70.13400269,-143.5820007,2,NA,US,US-AK
Bethel Airport,60.77980042,-161.8379974,126,NA,US,US-AK
Allen Army Airfield,63.99449921,-145.7220001,1291,NA,US,US-AK
Buckland Airport,65.9815979,-161.1490021,31,NA,US,US-AK
Wiley Post Will Rogers Memorial Airport,71.285402,-156.766008,44,NA,US,US-AK
Bettles Airport,66.91390228,-151.529007,647,NA,US,US-AK
Birchwood Airport,61.41650009,-149.5070038,83,NA,US,US-AK
Cold Bay Airport,55.20610046,-162.7250061,96,NA,US,US-AK
Clear Airport,64.301201,-149.119995,552,NA,US,US-AK
Scammon Bay Airport,61.84529877,-165.5709991,14,NA,US,US-AK
Merle K (Mudhole) Smith Airport,60.4917984,-145.4779968,54,NA,US,US-AK
Cape Romanzof LRRS Airport,61.78030014,-166.0390015,464,NA,US,US-AK
Deering Airport,66.06960297,-162.7660065,21,NA,US,US-AK
Adak Airport,51.87799835,-176.6459961,18,NA,US,US-AK
Dillingham Airport,59.04470062,-158.5050049,81,NA,US,US-AK
Marshall Don Hunter Sr Airport,61.86429977,-162.026001,103,NA,US,US-AK
Kodiak Airport,57.75,-152.4940033,78,NA,US,US-AK
Unalaska Airport,53.90010071,-166.5440063,22,NA,US,US-AK
Elmendorf Air Force Base,61.25099945,-149.8070068,212,NA,US,US-AK
Cape Newenham LRRS Airport,58.64640045,-162.0630035,541,NA,US,US-AK
Eielson Air Force Base,64.66570282,-147.102005,547,NA,US,US-AK
Emmonak Airport,62.78609848,-164.4909973,13,NA,US,US-AK
Kenai Municipal Airport,60.57310104,-151.2449951,99,NA,US,US-AK
Fairbanks International Airport,64.81510162,-147.8560028,439,NA,US,US-AK
Ladd AAF Airfield,64.83750153,-147.6139984,454,NA,US,US-AK
Kake Airport,56.96139908,-133.9100037,172,NA,US,US-AK
Ambler Airport,67.1063,-157.856989,334,NA,US,US-AK
Edward G. Pitka Sr Airport,64.73619843,-156.9369965,153,NA,US,US-AK
Gulkana Airport,62.1548996,-145.4570007,1586,NA,US,US-AK
Gambell Airport,63.76679993,-171.7330017,27,NA,US,US-AK
Gustavus Airport,58.4253006,-135.7070007,35,NA,US,US-AK
Holy Cross Airport,62.18830109,-159.7749939,70,NA,US,US-AK
Huslia Airport,65.69789886,-156.3509979,220,NA,US,US-AK
Haines Airport,59.24380112,-135.5240021,15,NA,US,US-AK
Homer Airport,59.64559937,-151.477005,84,NA,US,US-AK
Hooper Bay Airport,61.52389908,-166.1470032,13,NA,US,US-AK
Egegik Airport,58.1855011,-157.375,92,NA,US,US-AK
Bob Baker Memorial Airport,66.97599792,-160.4369965,166,NA,US,US-AK
Iliamna Airport,59.75439835,-154.9109955,192,NA,US,US-AK
Indian Mountain LRRS Airport,65.99279785,-153.7039948,1273,NA,US,US-AK
Juneau International Airport,58.35499954,-134.576004,21,NA,US,US-AK
King Salmon Airport,58.67679977,-156.6490021,73,NA,US,US-AK
Anaktuvuk Pass Airport,68.13359833,-151.7429962,2102,NA,US,US-AK
Ketchikan International Airport,55.35559845,-131.7140045,89,NA,US,US-AK
Klawock Airport,55.57920074,-133.076004,80,NA,US,US-AK
Cape Lisburne LRRS Airport,68.87509918,-166.1100006,16,NA,US,US-AK
McGrath Airport,62.95289993,-155.6060028,341,NA,US,US-AK
Merrill Field,61.21350098,-149.8439941,137,NA,US,US-AK
Mekoryuk Airport,60.37139893,-166.2709961,48,NA,US,US-AK
Ted Stevens Anchorage International Airport,61.17440033,-149.9960022,152,NA,US,US-AK
Aniak Airport,61.58160019,-159.5429993,88,NA,US,US-AK
Nenana Municipal Airport,64.54730225,-149.0740051,362,NA,US,US-AK
Annette Island Airport,55.04240036,-131.5720062,119,NA,US,US-AK
Anvik Airport,62.646702,-160.190994,291,NA,US,US-AK
Nome Airport,64.5121994,-165.4450073,37,NA,US,US-AK
Northway Airport,62.9612999,-141.9290009,1715,NA,US,US-AK
Ralph Wien Memorial Airport,66.88469696,-162.598999,14,NA,US,US-AK
St George Airport,56.57830048,-169.6620026,125,NA,US,US-AK
Port Clarence Coast Guard Station,65.25370026,-166.8589935,10,NA,US,US-AK
Petersburg James A Johnson Airport,56.80170059,-132.9450073,111,NA,US,US-AK
Port Heiden Airport,56.95909882,-158.6329956,95,NA,US,US-AK
Platinum Airport,59.01139832,-161.8200073,15,NA,US,US-AK
Nuiqsut Airport,70.20999908,-151.0059967,38,NA,US,US-AK
Arctic Village Airport,68.1147,-145.578995,2092,NA,US,US-AK
Ruby Airport,64.72720337,-155.4700012,658,NA,US,US-AK
Savoonga Airport,63.68640137,-170.4929962,53,NA,US,US-AK
Deadhorse Airport,70.19470215,-148.4649963,65,NA,US,US-AK
Sand Point Airport,55.31499863,-160.522995,21,NA,US,US-AK
Shishmaref Airport,66.249604,-166.089112,12,NA,US,US-AK
Sitka Rocky Gutierrez Airport,57.04710007,-135.3619995,21,NA,US,US-AK
Selawik Airport,66.60009766,-159.9859924,17,NA,US,US-AK
St Mary's Airport,62.0605011,-163.302002,312,NA,US,US-AK
St Paul Island Airport,57.16730118,-170.2200012,63,NA,US,US-AK
Sparrevohn LRRS Airport,61.09740067,-155.5740051,1585,NA,US,US-AK
Soldotna Airport,60.47570038,-151.0339966,113,NA,US,US-AK
Eareckson Air Station,52.71229935,174.1139984,95,NA,US,US-AK
Togiak Airport,59.05279922,-160.3970032,21,NA,US,US-AK
Talkeetna Airport,62.32049942,-150.0939941,358,NA,US,US-AK
Tatalina LRRS Airport,62.89440155,-155.977005,964,NA,US,US-AK
Atqasuk Edward Burnell Sr Memorial Airport,70.46730042,-157.4360046,96,NA,US,US-AK
Valdez Pioneer Field,61.13389969,-146.2480011,121,NA,US,US-AK
Kivalina Airport,67.73619843,-164.5630035,13,NA,US,US-AK
Seward Airport,60.12689972,-149.4190063,22,NA,US,US-AK
Wrangell Airport,56.48429871,-132.3699951,49,NA,US,US-AK
Wainwright Airport,70.63800049,-159.9949951,41,NA,US,US-AK
Noatak Airport,67.56610107,-162.9750061,88,NA,US,US-AK
Wasilla Airport,61.57170105,-149.5399933,354,NA,US,US-AK
Yakutat Airport,59.50329971,-139.6600037,33,NA,US,US-AK
Fort Yukon Airport,66.57150269,-145.25,433,NA,US,US-AK
Barking Sands Airport,22.02280045,-159.7850037,23,NA,US,US-HI
Dillingham Airfield,21.5795002,-158.1970062,14,NA,US,US-HI
Wheeler Army Airfield,21.48349953,-158.0399933,837,NA,US,US-HI
Hana Airport,20.79560089,-156.0140076,78,NA,US,US-HI
Kapalua Airport,20.96290016,-156.6730042,256,NA,US,US-HI
Kalaeloa Airport,21.3074,-158.070009,30,NA,US,US-HI
Ellison Onizuka Kona International At Keahole Airport,19.738783,-156.045603,47,NA,US,US-HI
Lihue Airport,21.97599983,-159.3390045,153,NA,US,US-HI
Molokai Airport,21.1529007,-157.095993,454,NA,US,US-HI
Waimea Kohala Airport,20.00130081,-155.6679993,2671,NA,US,US-HI
Kaneohe Bay MCAS (Marion E. Carl Field) Airport,21.45050049,-157.7680054,24,NA,US,US-HI
Daniel K Inouye International Airport,21.32062,-157.924228,13,NA,US,US-HI
Lanai Airport,20.78560066,-156.951004,1308,NA,US,US-HI
Kahului Airport,20.8986,-156.429993,54,NA,US,US-HI
Bradshaw Army Airfield,19.76009941,-155.5540009,6190,NA,US,US-HI
Hilo International Airport,19.72139931,-155.0480042,38,NA,US,US-HI
Upolu Airport,20.26530075,-155.8600006,96,NA,US,US-HI
Point Lay LRRS Airport,69.73290253,-163.0050049,22,NA,US,US-AK
Jim's Private Airport,33.59790039,-84.14440155,890,NA,US,US-GA
Yuma Auxiliary AAF #2,32.548984,-114.511383,,NA,US,US-AZ
atl,33.137551,-84.375,,NA,US,US-U-A
Williston Basin International Airport (U.C.),48.258387,-103.748797,2344,NA,US,US-ND
34S Airport,19.145168,-16.875,,NA,US,US-U-A
Buy Lyrica online (Pregabalin) 150mg capsules without prescription. Buy lyrica online.,-1.166666667,3.166666667,,NA,US,US-U-A
"Buy Lyrica online. Discount Lyrica 75 mg online. Buy Lyricaa Uk, Canada, AUSTRALIA",-2.166666667,-2.166666667,0,NA,US,US-U-A
JFK,0,0,,NA,US,US-NY
